{
    "links": {
        "self": "http://www.neowsapp.com/rest/v1/neo/3703779?api_key=iIulBulltgU6a56xZRHN4H3l9WmuAYTsLGpBGhQ2"
    },
    "id": "3703779",
    "neo_reference_id": "3703779",
    "name": "(2015 AA45)",
    "designation": "2015 AA45",
    "nasa_jpl_url": "http://ssd.jpl.nasa.gov/sbdb.cgi?sstr=3703779",
    "absolute_magnitude_h": 24.2,
    "estimated_diameter": {
        "kilometers": {
            "estimated_diameter_min": 0.0384197891,
            "estimated_diameter_max": 0.0859092601
        },
        "meters": {
            "estimated_diameter_min": 38.4197891064,
            "estimated_diameter_max": 85.9092601232
        },
        "miles": {
            "estimated_diameter_min": 0.0238729428,
            "estimated_diameter_max": 0.0533815229
        },
        "feet": {
            "estimated_diameter_min": 126.0491808919,
            "estimated_diameter_max": 281.8545369825
        }
    },
    "is_potentially_hazardous_asteroid": false,
    "close_approach_data": [
        {
            "close_approach_date": "2015-01-08",
            "close_approach_date_full": "2015-Jan-08 18:02",
            "epoch_date_close_approach": 1420740120000,
            "relative_velocity": {
                "kilometers_per_second": "4.4425400287",
                "kilometers_per_hour": "15993.1441031879",
                "miles_per_hour": "9937.517790117"
            },
            "miss_distance": {
                "astronomical": "0.1979494975",
                "lunar": "77.0023545275",
                "kilometers": "29612823.193570325",
                "miles": "18400555.087407485"
            },
            "orbiting_body": "Earth"
        }
    ],
    "orbital_data": {
        "orbit_id": "7",
        "orbit_determination_date": "2017-04-06 08:36:24",
        "first_observation_date": "2015-01-14",
        "last_observation_date": "2015-01-24",
        "data_arc_in_days": 10,
        "observations_used": 21,
        "orbit_uncertainty": "8",
        "minimum_orbit_intersection": ".186384",
        "jupiter_tisserand_invariant": "3.329",
        "epoch_osculation": "2457040.5",
        "eccentricity": ".5133444251470951",
        "semi_major_axis": "2.403059775096602",
        "inclination": "4.204135079961369",
        "ascending_node_longitude": "115.2144211543367",
        "orbital_period": "1360.646433432662",
        "perihelion_distance": "1.169462436255529",
        "perihelion_argument": "352.0407653640827",
        "aphelion_distance": "3.636657113937674",
        "perihelion_time": "2457026.980512781269",
        "mean_anomaly": "3.576987584103367",
        "mean_motion": ".2645801224729527",
        "equinox": "J2000",
        "orbit_class": {
            "orbit_class_type": "AMO",
            "orbit_class_description": "Near-Earth asteroid orbits similar to that of 1221 Amor",
            "orbit_class_range": "1.017 AU < q (perihelion) < 1.3 AU"
        }
    },
    "is_sentry_object": false
}